{
  "type": "FeatureCollection",
  "features": [
    {
      "type": "Feature",
      "properties": {
        "norad_id": 43214,
        "name": "FENGYUN 1C DEB",
        "group": "fengyun-1c-debris",
        "lat": 0.3919057364591752,
        "lon": -113.88010329187588,
        "alt_km": 773.8055383762558,
        "timestamp": "2025-12-27T10:28:59.085068+00:00",
        "meta_object_name": "FENGYUN 1C DEB",
        "meta_object_id": "1999-025EYN",
        "meta_epoch": "2025-12-26T21:50:23.447040",
        "meta_mean_motion": 14.24228621,
        "meta_eccentricity": 0.0056091,
        "meta_inclination": 98.7351,
        "meta_ra_of_asc_node": 65.5361,
        "meta_arg_of_pericenter": 186.7051,
        "meta_mean_anomaly": 173.3383,
        "meta_ephemeris_type": 0,
        "meta_classification_type": "U",
        "meta_norad_cat_id": 43214,
        "meta_element_set_no": 999,
        "meta_rev_at_epoch": 40605,
        "meta_bstar": 0.0018234,
        "meta_mean_motion_dot": 4.232e-05,
        "meta_mean_motion_ddot": 0,
        "tle_line1": "1 43214U 99025EYN 25360.90999360  .00004232  00000+0  18234-2 0  9990",
        "tle_line2": "2 43214  98.7351  65.5361 0056091 186.7051 173.3383 14.24228621406059"
      },
      "geometry": {
        "type": "Point",
        "coordinates": [
          -113.88010329187588,
          0.3919057364591752
        ]
      }
    },
    {
      "type": "Feature",
      "properties": {
        "norad_id": 43358,
        "name": "FENGYUN 1C DEB",
        "group": "fengyun-1c-debris",
        "lat": 9.458399877845816,
        "lon": -59.12787358073217,
        "alt_km": 834.9236213345603,
        "timestamp": "2025-12-27T10:28:59.085078+00:00",
        "meta_object_name": "FENGYUN 1C DEB",
        "meta_object_id": "1999-025EYP",
        "meta_epoch": "2025-12-26T21:06:09.125856",
        "meta_mean_motion": 13.40416654,
        "meta_eccentricity": 0.0367413,
        "meta_inclination": 98.6872,
        "meta_ra_of_asc_node": 118.933,
        "meta_arg_of_pericenter": 167.214,
        "meta_mean_anomaly": 193.8626,
        "meta_ephemeris_type": 0,
        "meta_classification_type": "U",
        "meta_norad_cat_id": 43358,
        "meta_element_set_no": 999,
        "meta_rev_at_epoch": 53920,
        "meta_bstar": 0.0023738,
        "meta_mean_motion_dot": 1.898e-05,
        "meta_mean_motion_ddot": 0,
        "tle_line1": "1 43358U 99025EYP 25360.87927229  .00001898  00000+0  23738-2 0  9990",
        "tle_line2": "2 43358  98.6872 118.9330 0367413 167.2140 193.8626 13.40416654539203"
      },
      "geometry": {
        "type": "Point",
        "coordinates": [
          -59.12787358073217,
          9.458399877845816
        ]
      }
    },
    {
      "type": "Feature",
      "properties": {
        "norad_id": 43359,
        "name": "FENGYUN 1C DEB",
        "group": "fengyun-1c-debris",
        "lat": 30.417784776428032,
        "lon": 76.46832897749486,
        "alt_km": 785.2422815104601,
        "timestamp": "2025-12-27T10:28:59.085088+00:00",
        "meta_object_name": "FENGYUN 1C DEB",
        "meta_object_id": "1999-025EYQ",
        "meta_epoch": "2025-12-25T04:21:01.480896",
        "meta_mean_motion": 14.23267674,
        "meta_eccentricity": 0.00734706,
        "meta_inclination": 99.052,
        "meta_ra_of_asc_node": 79.5201,
        "meta_arg_of_pericenter": 338.2051,
        "meta_mean_anomaly": 21.6005,
        "meta_ephemeris_type": 0,
        "meta_classification_type": "U",
        "meta_norad_cat_id": 43359,
        "meta_element_set_no": 999,
        "meta_rev_at_epoch": 47926,
        "meta_bstar": 0.0020431863,
        "meta_mean_motion_dot": 4.711e-05,
        "meta_mean_motion_ddot": 0,
        "tle_line1": "1 43359U 99025EYQ 25359.18126714  .00004711  00000+0  20432-2 0  9998",
        "tle_line2": "2 43359  99.0520  79.5201 0073470 338.2051  21.6005 14.23267674479262"
      },
      "geometry": {
        "type": "Point",
        "coordinates": [
          76.46832897749486,
          30.417784776428032
        ]
      }
    },
    {
      "type": "Feature",
      "properties": {
        "norad_id": 45526,
        "name": "FENGYUN 1C DEB",
        "group": "fengyun-1c-debris",
        "lat": -69.55178239758719,
        "lon": 98.02280083062162,
        "alt_km": 823.9540609316091,
        "timestamp": "2025-12-27T10:28:59.085098+00:00",
        "meta_object_name": "FENGYUN 1C DEB",
        "meta_object_id": "1999-025EYR",
        "meta_epoch": "2025-12-27T02:24:02.966112",
        "meta_mean_motion": 14.26058773,
        "meta_eccentricity": 0.0054915,
        "meta_inclination": 98.7614,
        "meta_ra_of_asc_node": 73.2542,
        "meta_arg_of_pericenter": 181.8869,
        "meta_mean_anomaly": 178.2111,
        "meta_ephemeris_type": 0,
        "meta_classification_type": "U",
        "meta_norad_cat_id": 45526,
        "meta_element_set_no": 999,
        "meta_rev_at_epoch": 43581,
        "meta_bstar": 0.002061,
        "meta_mean_motion_dot": 4.961e-05,
        "meta_mean_motion_ddot": 0,
        "tle_line1": "1 45526U 99025EYR 25361.10003433  .00004961  00000+0  20610-2 0  9998",
        "tle_line2": "2 45526  98.7614  73.2542 0054915 181.8869 178.2111 14.26058773435812"
      },
      "geometry": {
        "type": "Point",
        "coordinates": [
          98.02280083062162,
          -69.55178239758719
        ]
      }
    },
    {
      "type": "Feature",
      "properties": {
        "norad_id": 45527,
        "name": "FENGYUN 1C DEB",
        "group": "fengyun-1c-debris",
        "lat": -38.157981555512464,
        "lon": -118.95788484306036,
        "alt_km": 783.1115646171211,
        "timestamp": "2025-12-27T10:28:59.085108+00:00",
        "meta_object_name": "FENGYUN 1C DEB",
        "meta_object_id": "1999-025EYS",
        "meta_epoch": "2025-12-26T03:07:12.044928",
        "meta_mean_motion": 14.24597719,
        "meta_eccentricity": 0.0055822,
        "meta_inclination": 98.7379,
        "meta_ra_of_asc_node": 66.683,
        "meta_arg_of_pericenter": 187.7108,
        "meta_mean_anomaly": 172.3219,
        "meta_ephemeris_type": 0,
        "meta_classification_type": "U",
        "meta_norad_cat_id": 45527,
        "meta_element_set_no": 999,
        "meta_rev_at_epoch": 39770,
        "meta_bstar": 0.0015544085,
        "meta_mean_motion_dot": 3.626e-05,
        "meta_mean_motion_ddot": 0,
        "tle_line1": "1 45527U 99025EYS 25360.13000052  .00003626  00000+0  15544-2 0  9992",
        "tle_line2": "2 45527  98.7379  66.6830 0055822 187.7108 172.3219 14.24597719397701"
      },
      "geometry": {
        "type": "Point",
        "coordinates": [
          -118.95788484306036,
          -38.157981555512464
        ]
      }
    },
    {
      "type": "Feature",
      "properties": {
        "norad_id": 46440,
        "name": "FENGYUN 1C DEB",
        "group": "fengyun-1c-debris",
        "lat": -11.239358038982276,
        "lon": 29.74116254039111,
        "alt_km": 857.3303973134434,
        "timestamp": "2025-12-27T10:28:59.085118+00:00",
        "meta_object_name": "FENGYUN 1C DEB",
        "meta_object_id": "1999-025EYV",
        "meta_epoch": "2025-12-20T20:25:34.567392",
        "meta_mean_motion": 14.2032994,
        "meta_eccentricity": 0.01764773,
        "meta_inclination": 98.5919,
        "meta_ra_of_asc_node": 21.6185,
        "meta_arg_of_pericenter": 111.8963,
        "meta_mean_anomaly": 63.8759,
        "meta_ephemeris_type": 0,
        "meta_classification_type": "U",
        "meta_norad_cat_id": 46440,
        "meta_element_set_no": 999,
        "meta_rev_at_epoch": 62484,
        "meta_bstar": 0.00020023593,
        "meta_mean_motion_dot": 4.59e-06,
        "meta_mean_motion_ddot": 0,
        "tle_line1": "1 46440U 99025EYV 25354.85109453  .00000459  00000+0  20024-3 0  9995",
        "tle_line2": "2 46440  98.5919  21.6185 0176477 111.8963  63.8759 14.20329940624841"
      },
      "geometry": {
        "type": "Point",
        "coordinates": [
          29.74116254039111,
          -11.239358038982276
        ]
      }
    },
    {
      "type": "Feature",
      "properties": {
        "norad_id": 46443,
        "name": "FENGYUN 1C DEB",
        "group": "fengyun-1c-debris",
        "lat": 48.9548070380026,
        "lon": 57.95049382142455,
        "alt_km": 857.9873459666005,
        "timestamp": "2025-12-27T10:28:59.085129+00:00",
        "meta_object_name": "FENGYUN 1C DEB",
        "meta_object_id": "1999-025EYY",
        "meta_epoch": "2025-12-26T16:15:11.763936",
        "meta_mean_motion": 14.10922247,
        "meta_eccentricity": 0.00968734,
        "meta_inclination": 99.2139,
        "meta_ra_of_asc_node": 67.916,
        "meta_arg_of_pericenter": 316.3292,
        "meta_mean_anomaly": 196.4482,
        "meta_ephemeris_type": 0,
        "meta_classification_type": "U",
        "meta_norad_cat_id": 46443,
        "meta_element_set_no": 999,
        "meta_rev_at_epoch": 59792,
        "meta_bstar": 0.0016875708,
        "meta_mean_motion_dot": 3.117e-05,
        "meta_mean_motion_ddot": 0,
        "tle_line1": "1 46443U 99025EYY 25360.67721949  .00003117  00000+0  16876-2 0  9998",
        "tle_line2": "2 46443  99.2139  67.9160 0096873 316.3292 196.4482 14.10922247597922"
      },
      "geometry": {
        "type": "Point",
        "coordinates": [
          57.95049382142455,
          48.9548070380026
        ]
      }
    }
  ]
}